[{"OBJECT_NAME":"STARLINK-6329","OBJECT_ID":"2023-065Y","EPOCH":"2026-03-09T10:52:18.509664","MEAN_MOTION":15.02546185,"ECCENTRICITY":0.00013203,"INCLINATION":43.0032,"RA_OF_ASC_NODE":211.2296,"ARG_OF_PERICENTER":265.0497,"MEAN_ANOMALY":95.0194,"EPHEMERIS_TYPE":0,"CLASSIFICATION_TYPE":"U","NORAD_CAT_ID":56525,"ELEMENT_SET_NO":999,"REV_AT_EPOCH":15659,"BSTAR":-0.00029726296,"MEAN_MOTION_DOT":-4.218e-5,"MEAN_MOTION_DDOT":0},{"OBJECT_NAME":"CZ-4B DEB","OBJECT_ID":"2010-051H","EPOCH":"2026-03-08T15:03:50.230080","MEAN_MOTION":14.83710316,"ECCENTRICITY":0.01132064,"INCLINATION":97.7035,"RA_OF_ASC_NODE":129.0061,"ARG_OF_PERICENTER":211.6401,"MEAN_ANOMALY":147.7975,"EPHEMERIS_TYPE":0,"CLASSIFICATION_TYPE":"U","NORAD_CAT_ID":38326,"ELEMENT_SET_NO":999,"REV_AT_EPOCH":80705,"BSTAR":0.001509593,"MEAN_MOTION_DOT":0.00013943,"MEAN_MOTION_DDOT":0}]
